#dP2020 10 18  0  0  0.00000000      97 __u+U IGS14 FIT  IAC
## 2128      0.00000000   900.00000000 59140 0.0000000000000
+  122   C01C03C04C05C06C07C08C09C10C11C12C13C14C16C19C20C21
+        C22C23C24C25C26C27C28C29C30C32C33C34C35C36C37C38C39
+        C40C43C44C45C46C60E01E02E03E04E05E07E08E09E11E12E13
+        E14E15E18E19E21E24E25E26E27E30E31E33E36G01G02G03G04
+        G05G06G07G08G09G10G11G12G13G15G16G17G18G19G20G21G22
+        G23G24G25G26G27G28G29G30G31G32J01J02J03J07R01R02R03
+        R04R05R07R08R09R11R12R13R14R15R16R17R18R19R20R21R22
+        R23R24R26  0  0  0  0  0  0  0  0  0  0  0  0  0  0
++        13 13 14 13  8  8  8  8  8  7  7  7  7  8  7  7  7
++         7  7  7  7  7  7  7  7  8  8  7  7  7  7  8 12 10
++        10 10  8  8 11 14  4  4  4  4  4  4  4  4  4  4  4
++         4  4  4  4  4  4  4  4  4  4  4  4  5  3  3  3  3
++         3  3  3  3  3  3  3  3  3  3  3  3  3  3  3  3  3
++         3  3  3  3  3  3  3  3  3  3  9  9  9 14  6  5  5
++         5  5  5  5  5  5  5  6  5  5  6  5  5  6  6  5  6
++         5  5  8  0  0  0  0  0  0  0  0  0  0  0  0  0  0
%c M  cc GPS ccc cccc cccc cccc cccc ccccc ccccc ccccc ccccc
%c cc cc ccc ccc cccc cccc cccc cccc ccccc ccccc ccccc ccccc
%f  1.2500000  1.025000000  0.00000000000  0.000000000000000
%f  0.0000000  0.000000000  0.00000000000  0.000000000000000
%i    0    0    0    0      0      0      0      0         0
%i    0    0    0    0      0      0      0      0         0
/* INFORMATION & ANALYSIS CENTER (IAC)            FINAL DATA
/* S/V CLOCKS ARE ALIGNED TO GNSS TIME                      
/* G:C1WC2W R:C1PC2P E:C1XC5X C:C2IC6I J:C1CC2S             
/* PCV:IGS14_2118 OL/AL:FES2004  NONE     YN ORB:CoN CLK:CoN
*  2020 10 18  5 30  0.00000000
PC01 -34325.949302  24440.912353   -381.625959   -659.612783
PC03 -14815.470817  39502.656266    584.050580    803.056270
PC04 -39629.490576  14348.072218   -407.530690   -196.216165
PC05  21895.881693  36019.377562   1246.053062   -127.874874
PC06  -8710.043439  33003.832888  25449.312079     54.706132
PC07 -19549.075620  21913.802144 -30155.457800   -109.516902
PC08 -23340.575523  34042.734344   7654.549484   -616.505657
PC09   1769.509318  40487.420143  12616.979815    880.045960
PC10  -2810.270969  26084.474272 -32780.748152   -161.615537
PC11 -13698.685509   9507.350608 -22302.398464   -692.124166
PC12 -14925.847732 -11530.998714 -20544.217181    561.943942
PC13 -12195.409687  34951.592862  19982.386499    700.994838
PC14 -22571.263968   2877.623722  16208.260192     -7.608473
PC16  -5575.405045  34807.885234  23351.797449   -597.219963
PC19  15120.541541  -9753.924984 -21311.258686    585.823884
PC20  25951.258024   3556.518493  -9580.656513   -863.484953
PC21 -21743.889077 -15368.311724  -8378.138437   -699.511731
PC22  -4770.443504 -17787.517017 -20980.666703   -775.535389
PC23  -5702.291935  20395.571349 -18158.397045   -896.919847
PC24 -23581.091131   5145.628518  13987.313343   -720.796949
PC25 -20142.923983  18982.015538  -3473.761892   -795.116503
PC26 -13372.848335  -9788.752078  22446.835425    871.060407
PC27  12205.203129  20567.427509  14373.095628    417.566020
PC28   1248.118950  27754.216760  -2541.455252   -156.908184
PC29   9699.999266 -19083.745149  17898.991596    298.893143
PC30  16092.119664   1211.656785  22766.277578    391.237710
PC32  21815.365111  15226.815919   8418.571190   -902.180322
PC33 -15190.057408   9791.987909  21263.250292   -814.185020
PC34 -16076.830734   -534.836645 -22807.808873   -829.573053
PC35  -2030.671850 -27679.476641   2770.242110   -602.451220
PC36  20713.962965 -18421.152683   3254.803555   -872.693393
PC37  12538.497659  10615.891465 -22533.626514   -895.025994
PC38 -19910.966546  35429.273441  10945.261224    106.811958
PC39   -946.126223  36495.887765  21187.044423     23.983566
PC40  -7168.586300  21122.699210 -35752.327192     91.995387
PC43 -10103.044984  18720.368006 -18072.635688   -421.592969
PC44 -12887.382683 -20263.155729 -14197.625006   -163.101736
PC45   5667.660745 -20343.976622  18264.698163    258.973571
PC46  23724.609211  -5906.498578 -13472.303166    587.299307
PC60   7329.473424  41494.775099  -1294.861837 999999.999999
PE01   4365.363070  15913.953265 -24563.386778   -963.740025
PE02  -4473.767199 -15898.274994  24571.863362    169.743589
PE03 -11579.569034 -24982.051921 -10890.301401   -354.986216
PE04  22473.759376  17809.246782  -7341.054558   -629.391231
PE05   6263.826828 -17585.952231 -22976.493608   -336.943148
PE07 -20300.428713    -18.390835  21545.296195   -450.165142
PE08 -22612.098530 -17531.581297   7608.611050   6104.918799
PE09  20128.511417   -166.639943 -21699.436676   5895.099407
PE11  17998.673432 -10681.606004  20923.607742   6314.937985
PE12  12736.659345  11698.182879  24024.916564   5551.112223
PE13 -17897.690880  10448.479072 -21127.460379    404.701335
PE14  11299.777488  23357.466345    968.228705  -1194.171680
PE15 -12779.541788 -11474.053707 -24103.214335    847.928761
PE18 -20825.087070 -18036.802256 -14681.610866  -1304.439240
PE19   9793.075612  24820.908504  12811.897112    105.837369
PE21 -16864.772120  15906.732283 -18395.919516   -627.218443
PE24  28945.325610  -6183.475188    898.181608   -535.224629
PE25  17005.409046 -15878.914025  18314.564043   -518.471002
PE26 -12378.571819  26380.320295  -5148.730752   2600.212571
PE27 -28817.393115   6611.484926  -1339.888616    111.378367
PE30 -23334.597305  -7028.373921  16793.740175   3496.653917
PE31  23782.247640   6488.238498 -16370.577574   -474.952092
PE33    162.470096  26630.315301  12921.493639   -462.832904
PE36  12500.480469 -26214.199180   5745.246253    493.001843
PG01  14377.561257 -22113.629349    134.884478    814.855020
PG02 -17985.462324   8283.077440 -17047.289456   -531.035222
PG03  12522.175260 -12981.912574 -19545.516048   -329.283014
PG04   4517.213751 -19218.323877 -17742.957579   -146.400101
PG05 -26265.153347   2437.026793   3725.845493    -23.674174
PG06 -12250.420926  -8191.377602 -22041.402879   -333.862529
PG07   1995.323288 -22099.823972  14550.187644   -395.742922
PG08  11466.305471 -10116.634102  21705.097988    -51.837265
PG09  -6124.054400 -24319.468625  -8781.521608   -301.649125
PG10  17823.069900  11773.754726  16036.831747   -482.477075
PG11  11886.137917 -19722.810305  13067.940278   -133.834804
PG12 -15296.914431  11093.820083 -18834.917762     52.577908
PG13 -15565.703907    338.667739  21402.533371     55.842232
PG15 -10494.782141  12202.300355  20742.266649   -196.193762
PG16  26244.354613    -92.595208   5216.222865   -223.947472
PG17 -14966.144918 -20290.691230  -7985.517954    341.383501
PG18  -1718.069985  21625.209849  15279.863154    308.661819
PG19 -16514.516438 -15109.120848 -14639.777679    -90.311425
PG20   6046.255462  14997.580517  21023.700841    526.360540
PG21  18662.485271 -11814.268736  15270.161687     58.919331
PG22  19600.543514 -11170.314723 -13701.391305   -741.909895
PG23   7327.106502  14681.431828  20857.494410     87.439175
PG24 -14950.604685  21298.739977   3942.534316    -19.925206
PG25  -1850.758888  15185.886054 -21942.036578      7.151967
PG26  25059.688690   5452.718328  -7410.195999    297.103527
PG27  16826.881179   2579.386310  20332.145398   -420.977045
PG28 -17685.511136 -12964.686076  15450.176542    666.383857
PG29   2398.223381  23984.643628 -11140.872702   -217.845753
PG30  -6368.583673 -16493.505882  19808.638380   -321.957265
PG31  14268.138438   6090.034892 -21646.026305    -75.670695
PG32  16610.081360  19183.233021  -8022.828601    358.746372
PJ01 -27448.484207  21151.994213  29002.532900   -339.932299
PJ02 -35328.992059  19432.249254  -7679.832977     -5.320733
PJ03 -20056.172103  26863.268130 -20969.657434     -2.091585
PJ07 -25384.917531  33655.307306     51.338364      0.084590
PR01  20192.312638   4183.897561 -15012.629544     69.227706
PR02   3926.308939 -10409.812968 -22917.610347    450.428299
PR03 -12525.952029 -16632.651657 -14663.624873     23.978228
PR04 -21682.489571 -13311.985965   1790.821929     58.381759
PR05 -18588.919823  -2614.266790  17260.527361     59.476788
PR07  13019.048316  16737.779001  14240.676382    -40.850641
PR08  21669.660169  13366.717312  -1680.146442    -55.229999
PR09 -15735.687716  15271.659508 -13069.849458      2.887712
PR11  17626.098066   1038.573713 -18366.911084    -41.506333
PR12  23286.042860  -9579.550491  -4117.153431    172.732825
PR13  15901.269153 -15178.365290  12928.786004    -45.395070
PR14  -1043.735552 -11692.157947  22663.148836     56.725570
PR15 -16982.128239  -1607.647242  18991.907187    106.991166
PR16 -22981.820350  10374.234349   3378.215294     -7.359889
PR17  -1674.855463 -24468.319814  -7094.385269    366.981697
PR18  -8253.662673 -13017.458006 -20296.216704     53.109724
PR19 -10575.975200   4365.424144 -22795.531543   -115.886678
PR20  -6905.551376  22034.673413 -10864.968214   -424.419510
PR21   2085.968721  24058.818413   8158.899203   -159.810233
PR22   8468.998234  12005.830384  20862.833721    -78.029237
PR23   9860.215779 -12359.128437  20013.909061    339.086820
PR24   6641.377118 -22461.524356  10148.443843     17.267706
PR26  -8266.206579  18450.315208 -15517.973488   -363.294339
EOF
